{
  "type": "FeatureCollection",
  "features": [
    {
      "type": "Feature",
      "properties": {
        "norad_id": 24946,
        "name": "IRIDIUM 33",
        "group": "iridium-33-debris",
        "lat": 64.99181970979699,
        "lon": -115.16810444790545,
        "alt_km": 771.3155395651893,
        "timestamp": "2025-12-02T06:27:53.396447+00:00",
        "meta_object_name": "IRIDIUM 33",
        "meta_object_id": "1997-051C",
        "meta_epoch": "2025-12-01T19:53:25.969056",
        "meta_mean_motion": 14.35023852,
        "meta_eccentricity": 0.0006013,
        "meta_inclination": 86.3871,
        "meta_ra_of_asc_node": 72.801,
        "meta_arg_of_pericenter": 243.0633,
        "meta_mean_anomaly": 116.995,
        "meta_ephemeris_type": 0,
        "meta_classification_type": "U",
        "meta_norad_cat_id": 24946,
        "meta_element_set_no": 999,
        "meta_rev_at_epoch": 47678,
        "meta_bstar": 0.00013699,
        "meta_mean_motion_dot": 4.1e-06,
        "meta_mean_motion_ddot": 0,
        "tle_line1": "1 24946U 97051C   25335.82877279  .00000410  00000+0  13699-3 0  9990",
        "tle_line2": "2 24946  86.3871  72.8010 0006013 243.0633 116.9950 14.35023852476785"
      },
      "geometry": {
        "type": "Point",
        "coordinates": [
          -115.16810444790545,
          64.99181970979699
        ]
      }
    },
    {
      "type": "Feature",
      "properties": {
        "norad_id": 33773,
        "name": "IRIDIUM 33 DEB",
        "group": "iridium-33-debris",
        "lat": 57.00944277983088,
        "lon": -120.53748666968848,
        "alt_km": 737.9921201044499,
        "timestamp": "2025-12-02T06:27:53.396474+00:00",
        "meta_object_name": "IRIDIUM 33 DEB",
        "meta_object_id": "1997-051L",
        "meta_epoch": "2025-12-01T18:14:57.759936",
        "meta_mean_motion": 14.43214796,
        "meta_eccentricity": 0.0011325,
        "meta_inclination": 86.4014,
        "meta_ra_of_asc_node": 65.2411,
        "meta_arg_of_pericenter": 180.4532,
        "meta_mean_anomaly": 179.666,
        "meta_ephemeris_type": 0,
        "meta_classification_type": "U",
        "meta_norad_cat_id": 33773,
        "meta_element_set_no": 999,
        "meta_rev_at_epoch": 88189,
        "meta_bstar": 0.00036789,
        "meta_mean_motion_dot": 1.257e-05,
        "meta_mean_motion_ddot": 0,
        "tle_line1": "1 33773U 97051L   25335.76039074  .00001257  00000+0  36789-3 0  9999",
        "tle_line2": "2 33773  86.4014  65.2411 0011325 180.4532 179.6660 14.43214796881892"
      },
      "geometry": {
        "type": "Point",
        "coordinates": [
          -120.53748666968848,
          57.00944277983088
        ]
      }
    },
    {
      "type": "Feature",
      "properties": {
        "norad_id": 33775,
        "name": "IRIDIUM 33 DEB",
        "group": "iridium-33-debris",
        "lat": -84.73688313989918,
        "lon": 10.376816229857608,
        "alt_km": 760.5231233082586,
        "timestamp": "2025-12-02T06:27:53.396488+00:00",
        "meta_object_name": "IRIDIUM 33 DEB",
        "meta_object_id": "1997-051N",
        "meta_epoch": "2025-12-01T16:24:55.406304",
        "meta_mean_motion": 14.41426994,
        "meta_eccentricity": 0.0013021,
        "meta_inclination": 86.3644,
        "meta_ra_of_asc_node": 54.2725,
        "meta_arg_of_pericenter": 190.0986,
        "meta_mean_anomaly": 287.8112,
        "meta_ephemeris_type": 0,
        "meta_classification_type": "U",
        "meta_norad_cat_id": 33775,
        "meta_element_set_no": 999,
        "meta_rev_at_epoch": 87981,
        "meta_bstar": 0.00037814,
        "meta_mean_motion_dot": 1.246e-05,
        "meta_mean_motion_ddot": 0,
        "tle_line1": "1 33775U 97051N   25335.68397461  .00001246  00000+0  37814-3 0  9997",
        "tle_line2": "2 33775  86.3644  54.2725 0013021 190.0986 287.8112 14.41426994879819"
      },
      "geometry": {
        "type": "Point",
        "coordinates": [
          10.376816229857608,
          -84.73688313989918
        ]
      }
    },
    {
      "type": "Feature",
      "properties": {
        "norad_id": 33776,
        "name": "IRIDIUM 33 DEB",
        "group": "iridium-33-debris",
        "lat": -83.91851574396787,
        "lon": -58.646802684537604,
        "alt_km": 764.4701646254262,
        "timestamp": "2025-12-02T06:27:53.396500+00:00",
        "meta_object_name": "IRIDIUM 33 DEB",
        "meta_object_id": "1997-051P",
        "meta_epoch": "2025-12-01T19:44:54.326400",
        "meta_mean_motion": 14.38199264,
        "meta_eccentricity": 0.001323,
        "meta_inclination": 86.4034,
        "meta_ra_of_asc_node": 85.3598,
        "meta_arg_of_pericenter": 228.3938,
        "meta_mean_anomaly": 246.2121,
        "meta_ephemeris_type": 0,
        "meta_classification_type": "U",
        "meta_norad_cat_id": 33776,
        "meta_element_set_no": 999,
        "meta_rev_at_epoch": 87925,
        "meta_bstar": 0.0003473,
        "meta_mean_motion_dot": 1.074e-05,
        "meta_mean_motion_ddot": 0,
        "tle_line1": "1 33776U 97051P   25335.82285100  .00001074  00000+0  34730-3 0  9993",
        "tle_line2": "2 33776  86.4034  85.3598 0013230 228.3938 246.2121 14.38199264879251"
      },
      "geometry": {
        "type": "Point",
        "coordinates": [
          -58.646802684537604,
          -83.91851574396787
        ]
      }
    },
    {
      "type": "Feature",
      "properties": {
        "norad_id": 33777,
        "name": "IRIDIUM 33 DEB",
        "group": "iridium-33-debris",
        "lat": 59.41852377098268,
        "lon": -146.39251478652312,
        "alt_km": 705.8594639952644,
        "timestamp": "2025-12-02T06:27:53.396512+00:00",
        "meta_object_name": "IRIDIUM 33 DEB",
        "meta_object_id": "1997-051Q",
        "meta_epoch": "2025-12-01T16:42:48.787200",
        "meta_mean_motion": 14.55473312,
        "meta_eccentricity": 0.0005231,
        "meta_inclination": 86.3801,
        "meta_ra_of_asc_node": 40.0059,
        "meta_arg_of_pericenter": 300.7684,
        "meta_mean_anomaly": 59.3008,
        "meta_ephemeris_type": 0,
        "meta_classification_type": "U",
        "meta_norad_cat_id": 33777,
        "meta_element_set_no": 999,
        "meta_rev_at_epoch": 88373,
        "meta_bstar": 0.00098036,
        "meta_mean_motion_dot": 4.284e-05,
        "meta_mean_motion_ddot": 0,
        "tle_line1": "1 33777U 97051Q   25335.69639800  .00004284  00000+0  98036-3 0  9994",
        "tle_line2": "2 33777  86.3801  40.0059 0005231 300.7684  59.3008 14.55473312883731"
      },
      "geometry": {
        "type": "Point",
        "coordinates": [
          -146.39251478652312,
          59.41852377098268
        ]
      }
    },
    {
      "type": "Feature",
      "properties": {
        "norad_id": 33850,
        "name": "IRIDIUM 33 DEB",
        "group": "iridium-33-debris",
        "lat": -49.043935097685036,
        "lon": -141.09251719383298,
        "alt_km": 752.0436707498902,
        "timestamp": "2025-12-02T06:27:53.396523+00:00",
        "meta_object_name": "IRIDIUM 33 DEB",
        "meta_object_id": "1997-051T",
        "meta_epoch": "2025-12-01T16:38:06.698112",
        "meta_mean_motion": 14.42104741,
        "meta_eccentricity": 0.0011043,
        "meta_inclination": 86.3426,
        "meta_ra_of_asc_node": 34.9289,
        "meta_arg_of_pericenter": 196.0534,
        "meta_mean_anomaly": 283.302,
        "meta_ephemeris_type": 0,
        "meta_classification_type": "U",
        "meta_norad_cat_id": 33850,
        "meta_element_set_no": 999,
        "meta_rev_at_epoch": 87993,
        "meta_bstar": 0.00047773,
        "meta_mean_motion_dot": 1.59e-05,
        "meta_mean_motion_ddot": 0,
        "tle_line1": "1 33850U 97051T   25335.69313308  .00001590  00000+0  47773-3 0  9997",
        "tle_line2": "2 33850  86.3426  34.9289 0011043 196.0534 283.3020 14.42104741879934"
      },
      "geometry": {
        "type": "Point",
        "coordinates": [
          -141.09251719383298,
          -49.043935097685036
        ]
      }
    },
    {
      "type": "Feature",
      "properties": {
        "norad_id": 33853,
        "name": "IRIDIUM 33 DEB",
        "group": "iridium-33-debris",
        "lat": 74.8978598076871,
        "lon": 9.430183089268539,
        "alt_km": 1037.059619880949,
        "timestamp": "2025-12-02T06:27:53.396535+00:00",
        "meta_object_name": "IRIDIUM 33 DEB",
        "meta_object_id": "1997-051W",
        "meta_epoch": "2025-12-01T13:32:50.951904",
        "meta_mean_motion": 13.98940559,
        "meta_eccentricity": 0.02068509,
        "meta_inclination": 86.0002,
        "meta_ra_of_asc_node": 354.7122,
        "meta_arg_of_pericenter": 270.3532,
        "meta_mean_anomaly": 216.7696,
        "meta_ephemeris_type": 0,
        "meta_classification_type": "U",
        "meta_norad_cat_id": 33853,
        "meta_element_set_no": 999,
        "meta_rev_at_epoch": 85189,
        "meta_bstar": 0.0021815684,
        "meta_mean_motion_dot": 3.796e-05,
        "meta_mean_motion_ddot": 0,
        "tle_line1": "1 33853U 97051W   25335.56447861  .00003796  00000+0  21816-2 0  9997",
        "tle_line2": "2 33853  86.0002 354.7122 0206850 270.3532 216.7696 13.98940559851898"
      },
      "geometry": {
        "type": "Point",
        "coordinates": [
          9.430183089268539,
          74.8978598076871
        ]
      }
    }
  ]
}